[{"OBJECT_NAME":"STARLINK-32258","OBJECT_ID":"2024-155R","EPOCH":"2026-03-09T10:45:18.808704","MEAN_MOTION":15.30187509,"ECCENTRICITY":0.00011976,"INCLINATION":53.1584,"RA_OF_ASC_NODE":130.8063,"ARG_OF_PERICENTER":88.3205,"MEAN_ANOMALY":271.7933,"EPHEMERIS_TYPE":0,"CLASSIFICATION_TYPE":"U","NORAD_CAT_ID":60939,"ELEMENT_SET_NO":999,"REV_AT_EPOCH":8625,"BSTAR":7.2147459e-5,"MEAN_MOTION_DOT":1.777e-5,"MEAN_MOTION_DDOT":0},{"OBJECT_NAME":"USA 55","OBJECT_ID":"1990-028B","EPOCH":"2026-03-09T23:32:27.967200","MEAN_MOTION":15.43003152,"ECCENTRICITY":0.00579189,"INCLINATION":94.0887,"RA_OF_ASC_NODE":87.6293,"ARG_OF_PERICENTER":152.9949,"MEAN_ANOMALY":207.4341,"EPHEMERIS_TYPE":0,"CLASSIFICATION_TYPE":"U","NORAD_CAT_ID":20547,"ELEMENT_SET_NO":999,"REV_AT_EPOCH":98658,"BSTAR":0.00013659834,"MEAN_MOTION_DOT":6.373e-5,"MEAN_MOTION_DDOT":0}]
